start=new Date('2021-09-04T00:00:00.000Z').valueOf();
sats=[{"CENTER_NAME":"EARTH","PERIAPSIS":"545.860","MEAN_MOTION_DDOT":"0.0000000000000","MEAN_ELEMENT_THEORY":"SGP4","TLE_LINE1":"1 47809U 21018Y   21246.71736374  .00000736  00000-0  68327-4 0  9999","CLASSIFICATION_TYPE":"U","PERIOD":"95.592","EPHEMERIS_TYPE":"0","TLE_LINE2":"2 47809  53.0549  89.6415 0001972  81.5144 278.6068 15.06396146 28267","FILE":"3108332","RA_OF_ASC_NODE":"89.6415","SEMIMAJOR_AXIS":"6925.360","SITE":"AFETR","TIME_SYSTEM":"UTC","MEAN_MOTION":"15.06396146","INCLINATION":"53.0549","RCS_SIZE":"LARGE","DECAY_DATE":null,"GP_ID":"184049009","APOAPSIS":"548.591","COUNTRY_CODE":"US","OBJECT_TYPE":"PAYLOAD","REV_AT_EPOCH":"2826","LAUNCH_DATE":"2021-03-11","EPOCH":"2021-09-03T17:13:00.227136","MEAN_MOTION_DOT":"0.00000736","BSTAR":"0.00006832700000","OBJECT_NAME":"STARLINK-2390","ARG_OF_PERICENTER":"81.5144","OBJECT_ID":"2021-018Y","ELEMENT_SET_NO":"999","REF_FRAME":"TEME","ECCENTRICITY":"0.00019720","NORAD_CAT_ID":"47809","MEAN_ANOMALY":"278.6068"},{"BSTAR":"0.00009298800000","OBJECT_NAME":"STARLINK-2391","ARG_OF_PERICENTER":"67.3844","OBJECT_ID":"2021-018Z","ELEMENT_SET_NO":"999","MEAN_ANOMALY":"292.7371","REF_FRAME":"TEME","NORAD_CAT_ID":"47810","ECCENTRICITY":"0.00021320","DECAY_DATE":null,"GP_ID":"184049259","APOAPSIS":"548.698","COUNTRY_CODE":"US","OBJECT_TYPE":"PAYLOAD","EPOCH":"2021-09-03T16:13:17.453280","MEAN_MOTION_DOT":"0.00001103","LAUNCH_DATE":"2021-03-11","REV_AT_EPOCH":"2811","RA_OF_ASC_NODE":"99.8448","SEMIMAJOR_AXIS":"6925.356","TIME_SYSTEM":"UTC","SITE":"AFETR","INCLINATION":"53.0564","MEAN_MOTION":"15.06397522","RCS_SIZE":"LARGE","PERIAPSIS":"545.745","CENTER_NAME":"EARTH","MEAN_MOTION_DDOT":"0.0000000000000","MEAN_ELEMENT_THEORY":"SGP4","TLE_LINE1":"1 47810U 21018Z   21246.67589645  .00001103  00000-0  92988-4 0  9992","TLE_LINE2":"2 47810  53.0564  99.8448 0002132  67.3844 292.7371 15.06397522 28110","FILE":"3108332","PERIOD":"95.592","EPHEMERIS_TYPE":"0","CLASSIFICATION_TYPE":"U"},{"ARG_OF_PERICENTER":"95.6240","BSTAR":"0.00005156500000","OBJECT_NAME":"STARLINK-2392","NORAD_CAT_ID":"47811","ECCENTRICITY":"0.00022030","REF_FRAME":"TEME","MEAN_ANOMALY":"264.5001","OBJECT_ID":"2021-018AA","ELEMENT_SET_NO":"999","APOAPSIS":"548.777","GP_ID":"184050007","DECAY_DATE":null,"LAUNCH_DATE":"2021-03-11","REV_AT_EPOCH":"2851","MEAN_MOTION_DOT":"0.00000486","EPOCH":"2021-09-03T12:23:45.405600","OBJECT_TYPE":"PAYLOAD","COUNTRY_CODE":"US","SITE":"AFETR","TIME_SYSTEM":"UTC","SEMIMAJOR_AXIS":"6925.386","RA_OF_ASC_NODE":"70.5411","RCS_SIZE":"LARGE","MEAN_MOTION":"15.06387622","INCLINATION":"53.0560","MEAN_ELEMENT_THEORY":"SGP4","MEAN_MOTION_DDOT":"0.0000000000000","PERIAPSIS":"545.726","CENTER_NAME":"EARTH","PERIOD":"95.593","CLASSIFICATION_TYPE":"U","EPHEMERIS_TYPE":"0","FILE":"3108332","TLE_LINE2":"2 47811  53.0560  70.5411 0002203  95.6240 264.5001 15.06387622 28517","TLE_LINE1":"1 47811U 21018AA  21246.51649775  .00000486  00000-0  51565-4 0  9996"},{"MEAN_ELEMENT_THEORY":"SGP4","MEAN_MOTION_DDOT":"0.0000000000000","CENTER_NAME":"EARTH","PERIAPSIS":"546.099","FILE":"3108332","TLE_LINE2":"2 47812  53.0536 100.0782 0001654  88.7136 271.4043 15.06389942 28045","CLASSIFICATION_TYPE":"U","PERIOD":"95.593","EPHEMERIS_TYPE":"0","TLE_LINE1":"1 47812U 21018AB  21246.62059367 -.00001309  00000-0 -68982-4 0  9999","TIME_SYSTEM":"UTC","SITE":"AFETR","SEMIMAJOR_AXIS":"6925.379","RA_OF_ASC_NODE":"100.0782","RCS_SIZE":"LARGE","INCLINATION":"53.0536","MEAN_MOTION":"15.06389942","APOAPSIS":"548.390","GP_ID":"184050760","DECAY_DATE":null,"MEAN_MOTION_DOT":"-0.00001309","EPOCH":"2021-09-03T14:53:39.293088","REV_AT_EPOCH":"2804","LAUNCH_DATE":"2021-03-11","OBJECT_TYPE":"PAYLOAD","COUNTRY_CODE":"US","ARG_OF_PERICENTER":"88.7136","BSTAR":"-0.00006898200000","OBJECT_NAME":"STARLINK-2393","MEAN_ANOMALY":"271.4043","ECCENTRICITY":"0.00016540","NORAD_CAT_ID":"47812","REF_FRAME":"TEME","ELEMENT_SET_NO":"999","OBJECT_ID":"2021-018AB"},{"PERIOD":"95.593","EPHEMERIS_TYPE":"0","CLASSIFICATION_TYPE":"U","FILE":"3108332","TLE_LINE2":"2 47813  53.0567  70.4452 0002265 106.3741 253.7497 15.06392062 28517","TLE_LINE1":"1 47813U 21018AC  21246.53858087 -.00001339  00000-0 -70971-4 0  9990","MEAN_ELEMENT_THEORY":"SGP4","MEAN_MOTION_DDOT":"0.0000000000000","CENTER_NAME":"EARTH","PERIAPSIS":"545.669","RCS_SIZE":"LARGE","MEAN_MOTION":"15.06392062","INCLINATION":"53.0567","SITE":"AFETR","TIME_SYSTEM":"UTC","SEMIMAJOR_AXIS":"6925.373","RA_OF_ASC_NODE":"70.4452","REV_AT_EPOCH":"2851","LAUNCH_DATE":"2021-03-11","MEAN_MOTION_DOT":"-0.00001339","EPOCH":"2021-09-03T12:55:33.387168","OBJECT_TYPE":"PAYLOAD","COUNTRY_CODE":"US","APOAPSIS":"548.806","GP_ID":"184049510","DECAY_DATE":null,"NORAD_CAT_ID":"47813","ECCENTRICITY":"0.00022650","REF_FRAME":"TEME","MEAN_ANOMALY":"253.7497","ELEMENT_SET_NO":"999","OBJECT_ID":"2021-018AC","ARG_OF_PERICENTER":"106.3741","BSTAR":"-0.00007097100000","OBJECT_NAME":"STARLINK-2394"},{"REV_AT_EPOCH":"2826","LAUNCH_DATE":"2021-03-11","EPOCH":"2021-09-03T16:41:07.168704","MEAN_MOTION_DOT":"0.00001452","COUNTRY_CODE":"US","OBJECT_TYPE":"PAYLOAD","APOAPSIS":"548.520","DECAY_DATE":null,"GP_ID":"184049760","REF_FRAME":"TEME","ECCENTRICITY":"0.00019130","NORAD_CAT_ID":"47814","MEAN_ANOMALY":"279.4305","ELEMENT_SET_NO":"999","OBJECT_ID":"2021-018AD","ARG_OF_PERICENTER":"80.6901","BSTAR":"0.00011636000000","OBJECT_NAME":"STARLINK-2395","PERIOD":"95.592","EPHEMERIS_TYPE":"0","CLASSIFICATION_TYPE":"U","TLE_LINE2":"2 47814  53.0584  89.7512 0001913  80.6901 279.4305 15.06406143 28269","FILE":"3108332","TLE_LINE1":"1 47814U 21018AD  21246.69522186  .00001452  00000-0  11636-3 0  9992","MEAN_ELEMENT_THEORY":"SGP4","CENTER_NAME":"EARTH","PERIAPSIS":"545.870","MEAN_MOTION_DDOT":"0.0000000000000","RCS_SIZE":"LARGE","MEAN_MOTION":"15.06406143","INCLINATION":"53.0584","SITE":"AFETR","TIME_SYSTEM":"UTC","RA_OF_ASC_NODE":"89.7512","SEMIMAJOR_AXIS":"6925.330"},{"OBJECT_TYPE":"PAYLOAD","COUNTRY_CODE":"US","MEAN_MOTION_DOT":"0.00000293","EPOCH":"2021-09-03T14:15:51.036480","REV_AT_EPOCH":"2825","LAUNCH_DATE":"2021-03-11","GP_ID":"184050508","DECAY_DATE":null,"APOAPSIS":"548.694","OBJECT_ID":"2021-018AE","ELEMENT_SET_NO":"999","MEAN_ANOMALY":"283.0997","NORAD_CAT_ID":"47815","ECCENTRICITY":"0.00021270","REF_FRAME":"TEME","BSTAR":"0.00003860900000","OBJECT_NAME":"STARLINK-2396","ARG_OF_PERICENTER":"77.0229","TLE_LINE1":"1 47815U 21018AE  21246.59434070  .00000293  00000-0  38609-4 0  9998","FILE":"3108332","TLE_LINE2":"2 47815  53.0558  85.2019 0002127  77.0229 283.0997 15.06397714 28255","PERIOD":"95.592","CLASSIFICATION_TYPE":"U","EPHEMERIS_TYPE":"0","MEAN_MOTION_DDOT":"0.0000000000000","PERIAPSIS":"545.748","CENTER_NAME":"EARTH","MEAN_ELEMENT_THEORY":"SGP4","INCLINATION":"53.0558","MEAN_MOTION":"15.06397714","RCS_SIZE":"LARGE","SEMIMAJOR_AXIS":"6925.356","RA_OF_ASC_NODE":"85.2019","TIME_SYSTEM":"UTC","SITE":"AFETR"},{"MEAN_ELEMENT_THEORY":"SGP4","MEAN_MOTION_DDOT":"0.0000000000000","PERIAPSIS":"545.795","CENTER_NAME":"EARTH","FILE":"3108332","TLE_LINE2":"2 47816  53.0556  89.5630 0002090  82.3906 277.7320 15.06390684 28204","EPHEMERIS_TYPE":"0","PERIOD":"95.593","CLASSIFICATION_TYPE":"U","TLE_LINE1":"1 47816U 21018AF  21246.73578466 -.00000840  00000-0 -37466-4 0  9993","TIME_SYSTEM":"UTC","SITE":"AFETR","SEMIMAJOR_AXIS":"6925.377","RA_OF_ASC_NODE":"89.5630","RCS_SIZE":"LARGE","INCLINATION":"53.0556","MEAN_MOTION":"15.06390684","APOAPSIS":"548.690","GP_ID":"184050260","DECAY_DATE":null,"MEAN_MOTION_DOT":"-0.00000840","EPOCH":"2021-09-03T17:39:31.794624","REV_AT_EPOCH":"2820","LAUNCH_DATE":"2021-03-11","OBJECT_TYPE":"PAYLOAD","COUNTRY_CODE":"US","ARG_OF_PERICENTER":"82.3906","OBJECT_NAME":"STARLINK-2399","BSTAR":"-0.00003746600000","MEAN_ANOMALY":"277.7320","NORAD_CAT_ID":"47816","ECCENTRICITY":"0.00020900","REF_FRAME":"TEME","ELEMENT_SET_NO":"999","OBJECT_ID":"2021-018AF"},{"OBJECT_TYPE":"PAYLOAD","COUNTRY_CODE":"US","MEAN_MOTION_DOT":"0.00000744","EPOCH":"2021-09-03T16:30:34.028640","LAUNCH_DATE":"2021-03-11","REV_AT_EPOCH":"2819","GP_ID":"184049010","DECAY_DATE":null,"APOAPSIS":"548.790","OBJECT_ID":"2021-018AG","ELEMENT_SET_NO":"999","MEAN_ANOMALY":"281.4009","ECCENTRICITY":"0.00022280","NORAD_CAT_ID":"47817","REF_FRAME":"TEME","BSTAR":"0.00006887800000","OBJECT_NAME":"STARLINK-2400","ARG_OF_PERICENTER":"78.7231","TLE_LINE1":"1 47817U 21018AG  21246.68789385  .00000744  00000-0  68878-4 0  9994","FILE":"3108332","TLE_LINE2":"2 47817  53.0542  89.7790 0002228  78.7231 281.4009 15.06389130 28190","CLASSIFICATION_TYPE":"U","PERIOD":"95.593","EPHEMERIS_TYPE":"0","MEAN_MOTION_DDOT":"0.0000000000000","PERIAPSIS":"545.704","CENTER_NAME":"EARTH","MEAN_ELEMENT_THEORY":"SGP4","INCLINATION":"53.0542","MEAN_MOTION":"15.06389130","RCS_SIZE":"LARGE","SEMIMAJOR_AXIS":"6925.382","RA_OF_ASC_NODE":"89.7790","TIME_SYSTEM":"UTC","SITE":"AFETR"},{"CLASSIFICATION_TYPE":"U","PERIOD":"95.592","EPHEMERIS_TYPE":"0","FILE":"3108332","TLE_LINE2":"2 47818  53.0552  95.2528 0001996  79.6997 280.4217 15.06403274 28111","TLE_LINE1":"1 47818U 21018AH  21246.58233605  .00000623  00000-0  60725-4 0  9992","MEAN_ELEMENT_THEORY":"SGP4","MEAN_MOTION_DDOT":"0.0000000000000","CENTER_NAME":"EARTH","PERIAPSIS":"545.821","RCS_SIZE":"LARGE","MEAN_MOTION":"15.06403274","INCLINATION":"53.0552","SITE":"AFETR","TIME_SYSTEM":"UTC","SEMIMAJOR_AXIS":"6925.339","RA_OF_ASC_NODE":"95.2528","REV_AT_EPOCH":"2811","LAUNCH_DATE":"2021-03-11","MEAN_MOTION_DOT":"0.00000623","EPOCH":"2021-09-03T13:58:33.834720","OBJECT_TYPE":"PAYLOAD","COUNTRY_CODE":"US","APOAPSIS":"548.586","GP_ID":"184049260","DECAY_DATE":null,"NORAD_CAT_ID":"47818","ECCENTRICITY":"0.00019960","REF_FRAME":"TEME","MEAN_ANOMALY":"280.4217","ELEMENT_SET_NO":"999","OBJECT_ID":"2021-018AH","ARG_OF_PERICENTER":"79.6997","BSTAR":"0.00006072500000","OBJECT_NAME":"STARLINK-2401"}];
